{
  "links" : {
    "next" : "https://api.nasa.gov/neo/rest/v1/feed?start_date=2004-11-23&end_date=2004-11-23&detailed=true&api_key=t0TVs3DtDT2H8Oy2Zy8m2eVrNsAVKAexjcZXUckd",
    "prev" : "https://api.nasa.gov/neo/rest/v1/feed?start_date=2004-11-21&end_date=2004-11-21&detailed=true&api_key=t0TVs3DtDT2H8Oy2Zy8m2eVrNsAVKAexjcZXUckd",
    "self" : "https://api.nasa.gov/neo/rest/v1/feed?start_date=2004-11-22&end_date=2004-11-22&detailed=true&api_key=t0TVs3DtDT2H8Oy2Zy8m2eVrNsAVKAexjcZXUckd"
  },
  "element_count" : 5,
  "near_earth_objects" : {
    "2004-11-22" : [ {
      "links" : {
        "self" : "https://api.nasa.gov/neo/rest/v1/neo/3262409?api_key=t0TVs3DtDT2H8Oy2Zy8m2eVrNsAVKAexjcZXUckd"
      },
      "neo_reference_id" : "3262409",
      "name" : "(2004 VQ65)",
      "nasa_jpl_url" : "http://ssd.jpl.nasa.gov/sbdb.cgi?sstr=3262409",
      "absolute_magnitude_h" : 22.3,
      "estimated_diameter" : {
        "kilometers" : {
          "estimated_diameter_min" : 0.0921626549,
          "estimated_diameter_max" : 0.2060819612
        },
        "meters" : {
          "estimated_diameter_min" : 92.1626548503,
          "estimated_diameter_max" : 206.0819612321
        },
        "miles" : {
          "estimated_diameter_min" : 0.057267201,
          "estimated_diameter_max" : 0.1280533543
        },
        "feet" : {
          "estimated_diameter_min" : 302.370924539,
          "estimated_diameter_max" : 676.1219416887
        }
      },
      "is_potentially_hazardous_asteroid" : false,
      "close_approach_data" : [ {
        "close_approach_date" : "2004-11-22",
        "epoch_date_close_approach" : 1101110400000,
        "relative_velocity" : {
          "kilometers_per_second" : "9.6473129107",
          "kilometers_per_hour" : "34730.3264786521",
          "miles_per_hour" : "21580.0742500269"
        },
        "miss_distance" : {
          "astronomical" : "0.0261142198",
          "lunar" : "10.1584310532",
          "kilometers" : "3906631.75",
          "miles" : "2427468.5"
        },
        "orbiting_body" : "Earth"
      } ],
      "orbital_data" : {
        "orbit_id" : "11",
        "orbit_determination_date" : "2017-04-06 09:11:51",
        "orbit_uncertainty" : "8",
        "minimum_orbit_intersection" : ".0131718",
        "jupiter_tisserand_invariant" : "3.663",
        "epoch_osculation" : "2453330.5",
        "eccentricity" : ".516842317622761",
        "semi_major_axis" : "1.987354453809764",
        "inclination" : "9.25474801512844",
        "ascending_node_longitude" : "68.17661578399502",
        "orbital_period" : "1023.319913677122",
        "perihelion_distance" : ".960205571964809",
        "perihelion_argument" : "14.82874330458568",
        "aphelion_distance" : "3.014503335654718",
        "perihelion_time" : "2453348.997244312250",
        "mean_anomaly" : "353.492740771083",
        "mean_motion" : ".3517961442833674",
        "equinox" : "J2000"
      }
    }, {
      "links" : {
        "self" : "https://api.nasa.gov/neo/rest/v1/neo/2440212?api_key=t0TVs3DtDT2H8Oy2Zy8m2eVrNsAVKAexjcZXUckd"
      },
      "neo_reference_id" : "2440212",
      "name" : "440212 (2004 OB)",
      "nasa_jpl_url" : "http://ssd.jpl.nasa.gov/sbdb.cgi?sstr=2440212",
      "absolute_magnitude_h" : 18.9,
      "estimated_diameter" : {
        "kilometers" : {
          "estimated_diameter_min" : 0.4411182,
          "estimated_diameter_max" : 0.9863702813
        },
        "meters" : {
          "estimated_diameter_min" : 441.1181999969,
          "estimated_diameter_max" : 986.3702813054
        },
        "miles" : {
          "estimated_diameter_min" : 0.2740980571,
          "estimated_diameter_max" : 0.6129018881
        },
        "feet" : {
          "estimated_diameter_min" : 1447.2382352778,
          "estimated_diameter_max" : 3236.1230737181
        }
      },
      "is_potentially_hazardous_asteroid" : true,
      "close_approach_data" : [ {
        "close_approach_date" : "2004-11-22",
        "epoch_date_close_approach" : 1101110400000,
        "relative_velocity" : {
          "kilometers_per_second" : "7.1624943746",
          "kilometers_per_hour" : "25784.9797485976",
          "miles_per_hour" : "16021.7836665661"
        },
        "miss_distance" : {
          "astronomical" : "0.0543079225",
          "lunar" : "21.1257820129",
          "kilometers" : "8124349.5",
          "miles" : "5048237"
        },
        "orbiting_body" : "Earth"
      } ],
      "orbital_data" : {
        "orbit_id" : "108",
        "orbit_determination_date" : "2017-04-06 09:20:31",
        "orbit_uncertainty" : "0",
        "minimum_orbit_intersection" : ".0113716",
        "jupiter_tisserand_invariant" : "4.120",
        "epoch_osculation" : "2458000.5",
        "eccentricity" : ".4306369873011163",
        "semi_major_axis" : "1.68055016441711",
        "inclination" : "3.442881400363938",
        "ascending_node_longitude" : "174.5876873742298",
        "orbital_period" : "795.7481688353454",
        "perihelion_distance" : ".9568431046041299",
        "perihelion_argument" : "223.2491261857702",
        "aphelion_distance" : "2.404257224230089",
        "perihelion_time" : "2458090.126974899244",
        "mean_anomaly" : "319.4523591415209",
        "mean_motion" : ".452404434089864",
        "equinox" : "J2000"
      }
    }, {
      "links" : {
        "self" : "https://api.nasa.gov/neo/rest/v1/neo/3729838?api_key=t0TVs3DtDT2H8Oy2Zy8m2eVrNsAVKAexjcZXUckd"
      },
      "neo_reference_id" : "3729838",
      "name" : "(2015 TC145)",
      "nasa_jpl_url" : "http://ssd.jpl.nasa.gov/sbdb.cgi?sstr=3729838",
      "absolute_magnitude_h" : 23.4,
      "estimated_diameter" : {
        "kilometers" : {
          "estimated_diameter_min" : 0.0555334912,
          "estimated_diameter_max" : 0.1241766613
        },
        "meters" : {
          "estimated_diameter_min" : 55.5334911581,
          "estimated_diameter_max" : 124.1766612574
        },
        "miles" : {
          "estimated_diameter_min" : 0.0345069009,
          "estimated_diameter_max" : 0.0771597762
        },
        "feet" : {
          "estimated_diameter_min" : 182.1964991311,
          "estimated_diameter_max" : 407.4037573197
        }
      },
      "is_potentially_hazardous_asteroid" : false,
      "close_approach_data" : [ {
        "close_approach_date" : "2004-11-22",
        "epoch_date_close_approach" : 1101110400000,
        "relative_velocity" : {
          "kilometers_per_second" : "10.3584418087",
          "kilometers_per_hour" : "37290.3905111962",
          "miles_per_hour" : "23170.7984818041"
        },
        "miss_distance" : {
          "astronomical" : "0.1710743583",
          "lunar" : "66.5479278564",
          "kilometers" : "25592360",
          "miles" : "15902355"
        },
        "orbiting_body" : "Earth"
      } ],
      "orbital_data" : {
        "orbit_id" : "13",
        "orbit_determination_date" : "2017-04-06 08:31:25",
        "orbit_uncertainty" : "6",
        "minimum_orbit_intersection" : ".081367",
        "jupiter_tisserand_invariant" : "3.318",
        "epoch_osculation" : "2458000.5",
        "eccentricity" : ".5519842145897591",
        "semi_major_axis" : "2.372190880126137",
        "inclination" : "2.562623401378355",
        "ascending_node_longitude" : "100.9765517736528",
        "orbital_period" : "1334.513202788297",
        "perihelion_distance" : "1.062778960302722",
        "perihelion_argument" : "293.7253296524375",
        "aphelion_distance" : "3.681602799949552",
        "perihelion_time" : "2458654.915188617398",
        "mean_anomaly" : "183.4641160461891",
        "mean_motion" : ".2697612876724078",
        "equinox" : "J2000"
      }
    } ]
  }
}